OBJECT_NAME,OBJECT_ID,EPOCH,MEAN_MOTION,ECCENTRICITY,INCLINATION,RA_OF_ASC_NODE,ARG_OF_PERICENTER,MEAN_ANOMALY,EPHEMERIS_TYPE,CLASSIFICATION_TYPE,NORAD_CAT_ID,ELEMENT_SET_NO,REV_AT_EPOCH,BSTAR,MEAN_MOTION_DOT,MEAN_MOTION_DDOT
ARABSAT-5A,2010-032B,2026-07-03T14:04:49.273824,1.00275167,.0005796,0.0852,59.3271,58.0470,45.9611,0,U,36745,999,5881,0,.165E-5,0
ECHOSTAR 15,2010-034A,2026-07-05T04:43:15.220416,1.00270387,.0002406,0.0295,290.3218,147.1175,157.7688,0,U,36792,999,5850,0,.13E-6,0
CARTOSAT-2B,2010-035A,2026-07-05T06:32:08.688192,14.78607360,.0012262,97.9938,236.7063,127.9443,232.2878,0,U,36795,999,86252,.72671929E-4,.48E-5,0
ALSAT-2A,2010-035D,2026-07-05T06:29:51.624096,14.74511171,.00017135,97.7628,188.0950,100.4295,259.7107,0,U,36798,999,85642,.15890484E-3,.1009E-4,0
TISAT 1,2010-035E,2026-07-04T07:04:38.693856,15.32381693,.00036347,98.0712,133.3699,140.6786,219.4718,0,U,36799,999,87032,.96086611E-3,.30047E-3,0
BEIDOU-2 IGSO-1,2010-036A,2026-07-04T23:28:44.807232,1.00267280,.00591838,54.3059,162.7991,225.2498,354.5072,0,U,36828,999,5827,0,-.73E-6,0
NILESAT 201,2010-037A,2026-07-05T05:15:11.258784,1.00271956,.00054684,0.0094,274.7357,215.8811,224.4062,0,U,36830,999,5855,0,-.44E-6,0
RASCOM-QAF 1R,2010-037B,2026-07-03T13:56:57.528096,1.00271534,.0006582,0.0093,91.6422,1.8070,40.2800,0,U,36831,999,5847,0,.3E-6,0
YAOGAN-10,2010-038A,2026-07-05T08:04:42.229632,14.85410572,.00016169,97.8967,209.5965,86.8708,329.8715,0,U,36834,999,85990,.58091283E-3,.4952E-4,0
AEHF-1 (USA 214),2010-039A,2026-07-04T19:09:49.116096,1.00270144,.00039966,8.2612,67.8150,32.5322,139.8497,0,U,36868,999,5383,0,.157E-5,0
COSMOS 2467,2010-043A,2026-07-04T22:34:41.757312,12.42985825,.00018428,82.4558,53.9132,84.7251,291.3344,0,U,37152,999,71771,.20704914E-3,.39E-6,0
STRELA 3,2010-043B,2026-07-05T06:58:49.821888,12.40792350,.00085646,82.4566,67.1413,47.7853,312.3951,0,U,37153,999,71661,.9743826E-4,.23E-6,0
COSMOS 2468 (RODNIK-S 3),2010-043C,2026-07-05T00:47:17.687040,12.43747785,.00136636,82.4596,51.0616,270.7371,214.9859,0,U,37154,999,71809,.80345863E-4,.21E-6,0
YAOGAN-11,2010-047A,2026-07-04T20:57:25.747488,14.82107767,.003452,98.3833,52.8090,183.2871,176.8119,0,U,37165,999,85071,.13479183E-3,.1023E-4,0
ZHEDA PIXING 1B,2010-047B,2026-07-05T05:10:44.521248,14.91275284,.00183219,97.9489,164.5375,217.7365,142.2569,0,U,37166,999,85310,.36629939E-3,.3599E-4,0
ZHEDA PIXING 1C,2010-047C,2026-07-05T06:40:26.120640,14.91012836,.00179017,97.9783,168.0874,224.9374,135.0396,0,U,37167,999,85312,.34560789E-3,.3369E-4,0
SBSS (USA 216),2010-048A,2026-07-03T21:57:52.000416,15.16660030,.0081731,97.7308,70.7003,144.9239,42.0727,0,U,37168,999,85500,.23802E-3,.4998E-4,0
SHIJIAN-6 04A (SJ-6 04A),2010-051A,2026-07-05T06:49:27.866784,15.18202486,.00191333,97.8272,210.1012,158.7841,201.4189,0,U,37179,999,85969,.77635463E-3,.15901E-3,0
SHIJIAN-6 04B (SJ-6 04B),2010-051B,2026-07-05T07:24:56.482848,14.99374056,.00069022,97.8732,191.9111,246.7079,113.3417,0,U,37180,999,85839,.16489162E-3,.1956E-4,0
XM-5,2010-053A,2026-07-02T20:29:51.095904,1.00271810,.00024153,0.0667,268.1133,288.6084,276.4302,0,U,37185,999,5764,0,-.12E-6,0
GLOBALSTAR M079,2010-054A,2026-07-05T01:13:10.112736,12.62266452,.00010504,52.0046,54.2911,60.4707,86.8626,0,U,37188,999,72480,.84038979E-4,-.89E-6,0
GLOBALSTAR M074,2010-054B,2026-07-05T01:56:37.124736,12.62261935,.00008235,52.0026,53.4614,77.2991,87.3477,0,U,37189,999,72541,.78083926E-4,-.9E-6,0
GLOBALSTAR M076,2010-054C,2026-07-05T00:35:09.724704,12.62262063,.00010434,52.0039,53.8386,73.5085,73.8647,0,U,37190,999,72512,.76800156E-4,-.9E-6,0
GLOBALSTAR M077,2010-054D,2026-07-04T08:33:03.404160,11.67547948,.00024411,51.9935,135.7168,203.9150,325.8394,0,U,37191,999,72314,.16519171E-3,-.69E-6,0
GLOBALSTAR M075,2010-054E,2026-07-05T02:45:22.826592,12.62267688,.0000575,51.9943,95.6069,49.0300,89.7650,0,U,37192,999,72420,.19077942E-3,-.7E-6,0
GLOBALSTAR M073,2010-054F,2026-07-04T18:30:01.537632,12.62266821,.00011129,52.0073,10.7684,80.9165,292.3319,0,U,37193,999,72615,.33232932E-4,-.98E-6,0
BSAT-3B,2010-056B,2026-07-05T00:40:30.510624,1.00272082,.00023047,0.0553,228.9802,309.7603,224.2589,0,U,37207,999,5227,0,-.337E-5,0
BEIDOU-2 G4,2010-057A,2026-07-05T08:28:52.662720,1.00271193,.00049744,3.6892,68.8383,187.3736,314.3298,0,U,37210,999,5747,0,-.101E-5,0
FENGYUN 3B,2010-059A,2026-07-05T06:43:28.957728,14.14846680,.00228502,98.9605,232.3708,133.5703,358.3454,0,U,37214,999,80998,.23375778E-3,.407E-5,0
COSMO-SKYMED 4,2010-060A,2026-07-05T08:01:00.479712,14.82159994,.00014598,97.8890,9.6701,86.8558,273.2823,0,U,37216,999,84725,.67635578E-4,.486E-5,0
