ARABSAT-5A              
1 36745U 10032B   26184.58668141  .00000165  00000+0  00000+0 0  9991
2 36745   0.0852  59.3271 0005796  58.0470  45.9611  1.00275167 58817
ECHOSTAR 15             
1 36792U 10034A   26186.19670394  .00000013  00000+0  00000+0 0  9999
2 36792   0.0295 290.3218 0002406 147.1175 157.7688  1.00270387 58506
CARTOSAT-2B             
1 36795U 10035A   26186.27232278  .00000480  00000+0  72672-4 0  9994
2 36795  97.9938 236.7063 0012262 127.9443 232.2878 14.78607360862524
ALSAT-2A                
1 36798U 10035D   26186.27073639  .00001009  00000+0  15890-3 0  9997
2 36798  97.7628 188.0950 0001713 100.4295 259.7107 14.74511171856426
TISAT 1                 
1 36799U 10035E   26185.29489229  .00030047  00000+0  96087-3 0  9996
2 36799  98.0712 133.3699 0003634 140.6786 219.4718 15.32381693870328
BEIDOU-2 IGSO-1         
1 36828U 10036A   26185.97829638 -.00000073  00000+0  00000+0 0  9990
2 36828  54.3059 162.7991 0059183 225.2498 354.5072  1.00267280 58272
NILESAT 201             
1 36830U 10037A   26186.21888031 -.00000044  00000+0  00000+0 0  9992
2 36830   0.0094 274.7357 0005468 215.8811 224.4062  1.00271956 58553
RASCOM-QAF 1R           
1 36831U 10037B   26184.58122139  .00000030  00000+0  00000+0 0  9995
2 36831   0.0093  91.6422 0006582   1.8070  40.2800  1.00271534 58477
YAOGAN-10               
1 36834U 10038A   26186.33659988  .00004952  00000+0  58091-3 0  9995
2 36834  97.8967 209.5965 0001616  86.8708 329.8715 14.85410572859902
AEHF-1 (USA 214)        
1 36868U 10039A   26185.79848514  .00000157  00000+0  00000+0 0  9993
2 36868   8.2612  67.8150 0003996  32.5322 139.8497  1.00270144 53832
COSMOS 2467             
1 37152U 10043A   26185.94076108  .00000039  00000+0  20705-3 0  9991
2 37152  82.4558  53.9132 0001842  84.7251 291.3344 12.42985825717712
STRELA 3                
1 37153U 10043B   26186.29085442  .00000023  00000+0  97438-4 0  9993
2 37153  82.4566  67.1413 0008564  47.7853 312.3951 12.40792350716619
COSMOS 2468 (RODNIK-S 3)
1 37154U 10043C   26186.03284360  .00000021  00000+0  80346-4 0  9994
2 37154  82.4596  51.0616 0013663 270.7371 214.9859 12.43747785718092
YAOGAN-11               
1 37165U 10047A   26185.87321467  .00001023  00000+0  13479-3 0  9996
2 37165  98.3833  52.8090 0034520 183.2871 176.8119 14.82107767850713
ZHEDA PIXING 1B         
1 37166U 10047B   26186.21579307  .00003599  00000+0  36630-3 0  9998
2 37166  97.9489 164.5375 0018321 217.7365 142.2569 14.91275284853107
ZHEDA PIXING 1C         
1 37167U 10047C   26186.27808010  .00003369  00000+0  34561-3 0  9997
2 37167  97.9783 168.0874 0017901 224.9374 135.0396 14.91012836853123
SBSS (USA 216)          
1 37168U 10048A   26184.91518519  .00004998  00000+0  23802-3 0  9995
2 37168  97.7308  70.7003 0081731 144.9239  42.0727 15.16660030855008
SHIJIAN-6 04A (SJ-6 04A)
1 37179U 10051A   26186.28435031  .00015901  00000+0  77635-3 0  9999
2 37179  97.8272 210.1012 0019133 158.7841 201.4189 15.18202486859691
SHIJIAN-6 04B (SJ-6 04B)
1 37180U 10051B   26186.30898707  .00001956  00000+0  16489-3 0  9992
2 37180  97.8732 191.9111 0006902 246.7079 113.3417 14.99374056858393
XM-5                    
1 37185U 10053A   26183.85406361 -.00000012  00000+0  00000+0 0  9998
2 37185   0.0667 268.1133 0002415 288.6084 276.4302  1.00271810 57643
GLOBALSTAR M079         
1 37188U 10054A   26186.05081149 -.00000089  00000+0  84039-4 0  9993
2 37188  52.0046  54.2911 0001050  60.4707  86.8626 12.62266452724801
GLOBALSTAR M074         
1 37189U 10054B   26186.08098524 -.00000090  00000+0  78084-4 0  9997
2 37189  52.0026  53.4614 0000823  77.2991  87.3477 12.62261935725418
GLOBALSTAR M076         
1 37190U 10054C   26186.02441811 -.00000090  00000+0  76800-4 0  9998
2 37190  52.0039  53.8386 0001043  73.5085  73.8647 12.62262063725122
GLOBALSTAR M077         
1 37191U 10054D   26185.35628940 -.00000069  00000+0  16519-3 0  9990
2 37191  51.9935 135.7168 0002441 203.9150 325.8394 11.67547948723140
GLOBALSTAR M075         
1 37192U 10054E   26186.11484753 -.00000070  00000+0  19078-3 0  9993
2 37192  51.9943  95.6069 0000575  49.0300  89.7650 12.62267688724201
GLOBALSTAR M073         
1 37193U 10054F   26185.77085113 -.00000098  00000+0  33233-4 0  9992
2 37193  52.0073  10.7684 0001112  80.9165 292.3319 12.62266821726158
BSAT-3B                 
1 37207U 10056B   26186.02813091 -.00000337  00000+0  00000+0 0  9990
2 37207   0.0553 228.9802 0002304 309.7603 224.2589  1.00272082 52272
BEIDOU-2 G4             
1 37210U 10057A   26186.35338730 -.00000101  00000+0  00000+0 0  9992
2 37210   3.6892  68.8383 0004974 187.3736 314.3298  1.00271193 57475
FENGYUN 3B              
1 37214U 10059A   26186.28019627  .00000407  00000+0  23376-3 0  9994
2 37214  98.9605 232.3708 0022850 133.5703 358.3454 14.14846680809988
COSMO-SKYMED 4          
1 37216U 10060A   26186.33403333  .00000486  00000+0  67636-4 0  9990
2 37216  97.8890   9.6701 0001459  86.8558 273.2823 14.82159994847259
